NORAD_CAT_ID,OBJECT_NAME,OBJECT_TYPE,EPOCH,MEAN_MOTION,ECCENTRICITY,INCLINATION,RA_OF_ASC_NODE,ARG_OF_PERICENTER,MEAN_ANOMALY,BSTAR,MEAN_MOTION_DOT,MEAN_MOTION_DDOT,TLE_LINE0,TLE_LINE1,TLE_LINE2,SEMIMAJOR_AXIS,PERIOD,APOGEE,PERIGEE,DECAYED
53790.0,STARLINK-4734,PAYLOAD,2023-04-28 04:49:37,15.08845344,5.96e-05,53.2145,291.8741,128.1447,231.9598,0.00013398,1.846e-05,0.0,0 STARLINK-4734,1 53790U 22111T   23118.20112624  .00001846  00000-0  13398-3 0  9990,2 53790  53.2145 291.8741 0000596 128.1447 231.9598 15.08845344 34900,6917.864,95.437,540.141,539.317,0.0
53790.0,STARLINK-4734,PAYLOAD,2023-04-28 11:11:09,15.0884622,4.15e-05,53.2151,290.6844,148.6428,211.4589,0.00012325,1.675e-05,0.0,0 STARLINK-4734,1 53790U 22111T   23118.46608536  .00001675  00000-0  12325-3 0  9999,2 53790  53.2151 290.6844 0000415 148.6428 211.4589 15.08846220 35755,6917.861,95.437,540.013,539.439,0.0
53790.0,STARLINK-4734,PAYLOAD,2023-04-29 11:01:56,15.08845204,0.000129,53.2162,286.2248,84.7798,275.3342,-0.00011688,-2.148e-05,0.0,0 STARLINK-4734,1 53790U 22111T   23119.45968587 -.00002148  00000-0 -11688-3 0  9993,2 53790  53.2162 286.2248 0001290  84.7798 275.3342 15.08845204 35902,6917.864,95.437,540.622,538.837,0.0
53790.0,STARLINK-4734,PAYLOAD,2023-04-29 20:34:15,15.08837966,6.42e-05,53.2151,284.4363,118.6671,241.4386,-0.00018663,-3.256e-05,0.0,0 STARLINK-4734,1 53790U 22111T   23119.85712837 -.00003256  00000-0 -18663-3 0  9993,2 53790  53.2151 284.4363 0000642 118.6671 241.4386 15.08837966 35150,6917.887,95.438,540.196,539.307,0.0
53790.0,STARLINK-4734,PAYLOAD,2023-04-30 14:03:30,15.08847686,6.74e-05,53.2151,281.1669,87.3668,272.7401,0.0003044,4.561e-05,0.0,0 STARLINK-4734,1 53790U 22111T   23120.58576706  .00004561  00000-0  30440-3 0  9993,2 53790  53.2151 281.1669 0000674  87.3668 272.7401 15.08847686 36073,6917.857,95.437,540.188,539.256,0.0
53790.0,STARLINK-4734,PAYLOAD,2023-04-30 17:14:16,15.08850258,7.65e-05,53.2152,280.5718,90.7142,269.3938,0.00047545,7.289e-05,0.0,0 STARLINK-4734,1 53790U 22111T   23120.71824786  .00007289  00000-0  47545-3 0  9996,2 53790  53.2152 280.5718 0000765  90.7142 269.3938 15.08850258 35286,6917.849,95.437,540.243,539.185,0.0
53790.0,STARLINK-4734,PAYLOAD,2023-05-01 13:54:17,15.08846013,4.95e-05,53.2147,276.7052,90.0282,270.0766,0.00018773,2.702e-05,0.0,0 STARLINK-4734,1 53790U 22111T   23121.57936694  .00002702  00000-0  18773-3 0  9999,2 53790  53.2147 276.7052 0000495  90.0282 270.0766 15.08846013 36223,6917.862,95.437,540.069,539.385,0.0
53790.0,STARLINK-4734,PAYLOAD,2023-05-01 15:29:40,15.08847676,5.05e-05,53.2147,276.4078,83.5582,276.5468,0.00030433,4.56e-05,0.0,0 STARLINK-4734,1 53790U 22111T   23121.64560678  .00004560  00000-0  30433-3 0  9993,2 53790  53.2147 276.4078 0000505  83.5582 276.5468 15.08847676 35427,6917.857,95.437,540.071,539.373,0.0
53790.0,STARLINK-4734,PAYLOAD,2023-05-02 13:45:04,15.08850282,8.78e-05,53.2143,272.242,119.8119,240.296,0.00037517,5.69e-05,0.0,0 STARLINK-4734,1 53790U 22111T   23122.57296378  .00005690  00000-0  37517-3 0  9994,2 53790  53.2143 272.2420 0000878 119.8119 240.2960 15.08850282 36377,6917.849,95.437,540.321,539.107,0.0
53790.0,STARLINK-4734,PAYLOAD,2023-05-02 16:55:50,15.0885612,7.25e-05,53.2166,271.6537,103.8468,256.2605,0.00044928,6.873e-05,0.0,0 STARLINK-4734,1 53790U 22111T   23122.70544272  .00006873  00000-0  44928-3 0  9996,2 53790  53.2166 271.6537 0000725 103.8468 256.2605 15.08856120 36397,6917.831,95.437,540.198,539.195,0.0
53790.0,STARLINK-4734,PAYLOAD,2023-05-03 02:28:09,15.08832738,6.88e-05,53.2151,269.8649,88.5534,271.5537,-9.0225e-05,-1.723e-05,0.0,0 STARLINK-4734,1 53790U 22111T   23123.10288681 -.00001723  00000-0 -90225-4 0  9993,2 53790  53.2151 269.8649 0000688  88.5534 271.5537 15.08832738 35645,6917.903,95.438,540.244,539.292,0.0
53790.0,STARLINK-4734,PAYLOAD,2023-05-03 13:35:51,15.08841981,5.81e-05,53.215,267.7833,110.9594,249.1461,9.7592e-05,1.266e-05,0.0,0 STARLINK-4734,1 53790U 22111T   23123.56656378  .00001266  00000-0  97592-4 0  9999,2 53790  53.2150 267.7833 0000581 110.9594 249.1461 15.08841981 36529,6917.874,95.437,540.141,539.337,0.0
53790.0,STARLINK-4734,PAYLOAD,2023-05-03 15:11:14,15.0884491,6.5e-05,53.2149,267.4856,113.8993,246.2067,0.00020365,2.955e-05,0.0,0 STARLINK-4734,1 53790U 22111T   23123.63280318  .00002955  00000-0  20365-3 0  9993,2 53790  53.2149 267.4856 0000650 113.8993 246.2067 15.08844910 35727,6917.865,95.437,540.18,539.281,0.0
53790.0,STARLINK-4734,PAYLOAD,2023-05-03 19:57:23,15.08849966,4.86e-05,53.2151,266.5948,104.9145,255.1901,0.00056916,8.785e-05,0.0,0 STARLINK-4734,1 53790U 22111T   23123.83152200  .00008785  00000-0  56916-3 0  9991,2 53790  53.2151 266.5948 0000486 104.9145 255.1901 15.08849966 36564,6917.85,95.437,540.051,539.379,0.0
53790.0,STARLINK-4734,PAYLOAD,2023-05-04 13:26:38,15.08836454,8.83e-05,53.2154,263.3224,79.7715,280.3377,0.0002598,3.849e-05,0.0,0 STARLINK-4734,1 53790U 22111T   23124.56016825  .00003849  00000-0  25980-3 0  9997,2 53790  53.2154 263.3224 0000883  79.7715 280.3377 15.08836454 35869,6917.891,95.438,540.367,539.145,0.0
53790.0,STARLINK-4734,PAYLOAD,2023-05-04 19:48:10,15.08841281,7.89e-05,53.2163,262.1312,71.0302,289.0775,0.0001069,1.414e-05,0.0,0 STARLINK-4734,1 53790U 22111T   23124.82512648  .00001414  00000-0  10690-3 0  9998,2 53790  53.2163 262.1312 0000789  71.0302 289.0775 15.08841281 36713,6917.876,95.437,540.287,539.196,0.0
53790.0,STARLINK-4734,PAYLOAD,2023-05-05 14:52:48,15.0884868,5.55e-05,53.2152,258.5639,77.2135,282.8919,0.00029732,4.448e-05,0.0,0 STARLINK-4734,1 53790U 22111T   23125.62000563  .00004448  00000-0  29732-3 0  9992,2 53790  53.2152 258.5639 0000555  77.2135 282.8919 15.08848680 36020,6917.854,95.437,540.103,539.335,0.0
53790.0,STARLINK-4734,PAYLOAD,2023-05-05 18:03:34,15.08855362,6.49e-05,53.2153,257.9702,69.209,290.8971,0.00068066,0.00010566,0.0,0 STARLINK-4734,1 53790U 22111T   23125.75248516  .00010566  00000-0  68066-3 0  9999,2 53790  53.2153 257.9702 0000649  69.2090 290.8971 15.08855362 36853,6917.833,95.437,540.147,539.249,0.0
53790.0,STARLINK-4734,PAYLOAD,2023-05-06 02:00:30,15.08842012,4.35e-05,53.2141,256.4873,46.053,314.0498,0.00039304,5.973e-05,0.0,0 STARLINK-4734,1 53790U 22111T   23126.08368760  .00005973  00000-0  39304-3 0  9999,2 53790  53.2141 256.4873 0000435  46.0530 314.0498 15.08842012 36095,6917.874,95.437,540.04,539.438,0.0
53790.0,STARLINK-4734,PAYLOAD,2023-05-06 13:08:12,15.08841526,7.97e-05,53.2153,254.4042,74.857,285.2511,0.00026686,3.962e-05,0.0,0 STARLINK-4734,1 53790U 22111T   23126.54736983  .00003962  00000-0  26686-3 0  9991,2 53790  53.2153 254.4042 0000797  74.8570 285.2511 15.08841526 36979,6917.876,95.437,540.292,539.189,0.0
53790.0,STARLINK-4734,PAYLOAD,2023-05-07 01:51:17,15.08848669,8.37e-05,53.2154,252.0252,62.787,297.3207,0.0003763,5.708e-05,0.0,0 STARLINK-4734,1 53790U 22111T   23127.07728892  .00005708  00000-0  37630-3 0  9991,2 53790  53.2154 252.0252 0000837  62.7870 297.3207 15.08848669 36242,6917.854,95.437,540.298,539.14,0.0
53790.0,STARLINK-4734,PAYLOAD,2023-05-07 12:58:59,15.0884349,0.0001079,53.216,249.9443,67.2921,292.8185,0.00023258,3.416e-05,0.0,0 STARLINK-4734,1 53790U 22111T   23127.54097123  .00003416  00000-0  23258-3 0  9994,2 53790  53.2160 249.9443 0001079  67.2921 292.8185 15.08843490 36312,6917.87,95.437,540.481,538.988,0.0
53790.0,STARLINK-4734,PAYLOAD,2023-05-07 14:34:23,15.08842692,0.0001024,53.216,249.6465,67.6259,292.4841,0.00019407,2.802e-05,0.0,0 STARLINK-4734,1 53790U 22111T   23127.60721110  .00002802  00000-0  19407-3 0  9990,2 53790  53.2160 249.6465 0001024  67.6259 292.4841 15.08842692 37130,6917.872,95.437,540.446,539.029,0.0
53790.0,STARLINK-4734,PAYLOAD,2023-05-08 17:35:55,15.08853069,7.47e-05,53.2152,244.5894,85.5594,274.5484,0.00032789,4.936e-05,0.0,0 STARLINK-4734,1 53790U 22111T   23128.73328551  .00004936  00000-0  32789-3 0  9995,2 53790  53.2152 244.5894 0000747  85.5594 274.5484 15.08853069 36495,6917.84,95.437,540.222,539.189,0.0
53790.0,STARLINK-4734,PAYLOAD,2023-05-09 14:15:57,15.08839667,7.64e-05,53.215,240.7239,91.1129,268.9951,0.00012643,1.725e-05,0.0,0 STARLINK-4734,1 53790U 22111T   23129.59441234  .00001725  00000-0  12643-3 0  9994,2 53790  53.2150 240.7239 0000764  91.1129 268.9951 15.08839667 37439,6917.881,95.438,540.275,539.218,0.0
53790.0,STARLINK-4734,PAYLOAD,2023-05-10 12:31:21,15.08842841,6.75e-05,53.2145,236.5619,94.5557,265.5512,0.00026176,3.881e-05,0.0,0 STARLINK-4734,1 53790U 22111T   23130.52177301  .00003881  00000-0  26176-3 0  9991,2 53790  53.2145 236.5619 0000675  94.5557 265.5512 15.08842841 37570,6917.872,95.437,540.204,539.27,0.0
53790.0,STARLINK-4734,PAYLOAD,2023-05-10 23:39:03,15.08853021,7.36e-05,53.2146,234.4806,103.7341,256.3733,0.00079229,0.00012348,0.0,0 STARLINK-4734,1 53790U 22111T   23130.98545192  .00012348  00000-0  79229-3 0  9993,2 53790  53.2146 234.4806 0000736 103.7341 256.3733 15.08853021 36831,6917.841,95.437,540.215,539.196,0.0
53790.0,STARLINK-4734,PAYLOAD,2023-05-11 10:46:45,15.08846398,0.00017,53.2167,232.4089,143.8586,216.2521,0.00029264,4.373e-05,0.0,0 STARLINK-4734,1 53790U 22111T   23131.44913256  .00004373  00000-0  29264-3 0  9998,2 53790  53.2167 232.4089 0001700 143.8586 216.2521 15.08846398 37710,6917.861,95.437,540.902,538.55,0.0
53790.0,STARLINK-4734,PAYLOAD,2023-05-11 12:22:08,15.08842261,8.08e-05,53.2145,232.1006,99.2193,260.8891,0.00019522,2.821e-05,0.0,0 STARLINK-4734,1 53790U 22111T   23131.51537315  .00002821  00000-0  19522-3 0  9996,2 53790  53.2145 232.1006 0000808  99.2193 260.8891 15.08842261 37729,6917.873,95.437,540.297,539.18,0.0
53790.0,STARLINK-4734,PAYLOAD,2023-05-11 23:29:50,15.08839369,0.0001192,53.2155,230.0257,126.3595,233.7507,5.4402e-05,5.78e-06,0.0,0 STARLINK-4734,1 53790U 22111T   23131.97905408  .00000578  00000-0  54402-4 0  9992,2 53790  53.2155 230.0257 0001192 126.3595 233.7507 15.08839369 36985,6917.882,95.438,540.572,538.923,0.0
